{
  "type": "FeatureCollection",
  "features": [
    {
      "type": "Feature",
      "properties": {
        "norad_id": 31477,
        "name": "FENGYUN 1C DEB",
        "group": "fengyun-1c-debris",
        "lat": 60.50131618952792,
        "lon": 171.163468989852,
        "alt_km": 870.6208084139644,
        "timestamp": "2025-12-11T08:58:27.406626+00:00",
        "meta_object_name": "FENGYUN 1C DEB",
        "meta_object_id": "1999-025BVR",
        "meta_epoch": "2025-12-10T22:09:07.981056",
        "meta_mean_motion": 14.02920206,
        "meta_eccentricity": 0.0110272,
        "meta_inclination": 98.8854,
        "meta_ra_of_asc_node": 334.6714,
        "meta_arg_of_pericenter": 33.9464,
        "meta_mean_anomaly": 326.8695,
        "meta_ephemeris_type": 0,
        "meta_classification_type": "U",
        "meta_norad_cat_id": 31477,
        "meta_element_set_no": 999,
        "meta_rev_at_epoch": 95378,
        "meta_bstar": 0.00033731,
        "meta_mean_motion_dot": 5.09e-06,
        "meta_mean_motion_ddot": 0,
        "tle_line1": "1 31477U 99025BVR 25344.92300904  .00000509  00000+0  33731-3 0  9995",
        "tle_line2": "2 31477  98.8854 334.6714 0110272  33.9464 326.8695 14.02920206953783"
      },
      "geometry": {
        "type": "Point",
        "coordinates": [
          171.163468989852,
          60.50131618952792
        ]
      }
    },
    {
      "type": "Feature",
      "properties": {
        "norad_id": 31480,
        "name": "FENGYUN 1C DEB",
        "group": "fengyun-1c-debris",
        "lat": -25.11564717088588,
        "lon": 12.734962856925666,
        "alt_km": 696.24304691424,
        "timestamp": "2025-12-11T08:58:27.406639+00:00",
        "meta_object_name": "FENGYUN 1C DEB",
        "meta_object_id": "1999-025BVU",
        "meta_epoch": "2025-12-09T12:46:31.039680",
        "meta_mean_motion": 13.89862191,
        "meta_eccentricity": 0.0345422,
        "meta_inclination": 98.3367,
        "meta_ra_of_asc_node": 195.0218,
        "meta_arg_of_pericenter": 230.3175,
        "meta_mean_anomaly": 126.7053,
        "meta_ephemeris_type": 0,
        "meta_classification_type": "U",
        "meta_norad_cat_id": 31480,
        "meta_element_set_no": 999,
        "meta_rev_at_epoch": 93351,
        "meta_bstar": 0.0049778,
        "meta_mean_motion_dot": 9.878e-05,
        "meta_mean_motion_ddot": 0,
        "tle_line1": "1 31480U 99025BVU 25343.53230370  .00009878  00000+0  49778-2 0  9999",
        "tle_line2": "2 31480  98.3367 195.0218 0345422 230.3175 126.7053 13.89862191933514"
      },
      "geometry": {
        "type": "Point",
        "coordinates": [
          12.734962856925666,
          -25.11564717088588
        ]
      }
    },
    {
      "type": "Feature",
      "properties": {
        "norad_id": 31482,
        "name": "FENGYUN 1C DEB",
        "group": "fengyun-1c-debris",
        "lat": 49.00279153370989,
        "lon": -20.499489707139222,
        "alt_km": 803.0137078542257,
        "timestamp": "2025-12-11T08:58:27.406650+00:00",
        "meta_object_name": "FENGYUN 1C DEB",
        "meta_object_id": "1999-025BVW",
        "meta_epoch": "2025-12-10T11:42:53.451360",
        "meta_mean_motion": 14.35641403,
        "meta_eccentricity": 0.00888565,
        "meta_inclination": 98.3832,
        "meta_ra_of_asc_node": 348.4071,
        "meta_arg_of_pericenter": 289.073,
        "meta_mean_anomaly": 224.3596,
        "meta_ephemeris_type": 0,
        "meta_classification_type": "U",
        "meta_norad_cat_id": 31482,
        "meta_element_set_no": 999,
        "meta_rev_at_epoch": 97097,
        "meta_bstar": 0.0011511039,
        "meta_mean_motion_dot": 3.43e-05,
        "meta_mean_motion_ddot": 0,
        "tle_line1": "1 31482U 99025BVW 25344.48811865  .00003430  00000+0  11511-2 0  9992",
        "tle_line2": "2 31482  98.3832 348.4071 0088856 289.0730 224.3596 14.35641403970978"
      },
      "geometry": {
        "type": "Point",
        "coordinates": [
          -20.499489707139222,
          49.00279153370989
        ]
      }
    },
    {
      "type": "Feature",
      "properties": {
        "norad_id": 31483,
        "name": "FENGYUN 1C DEB",
        "group": "fengyun-1c-debris",
        "lat": -4.819439204172336,
        "lon": -63.82804576981573,
        "alt_km": 897.5402939848063,
        "timestamp": "2025-12-11T08:58:27.406661+00:00",
        "meta_object_name": "FENGYUN 1C DEB",
        "meta_object_id": "1999-025BVX",
        "meta_epoch": "2025-12-10T15:13:17.294016",
        "meta_mean_motion": 14.15992511,
        "meta_eccentricity": 0.0118853,
        "meta_inclination": 102.5033,
        "meta_ra_of_asc_node": 294.0657,
        "meta_arg_of_pericenter": 226.3652,
        "meta_mean_anomaly": 318.9099,
        "meta_ephemeris_type": 0,
        "meta_classification_type": "U",
        "meta_norad_cat_id": 31483,
        "meta_element_set_no": 999,
        "meta_rev_at_epoch": 94676,
        "meta_bstar": 0.0047574,
        "meta_mean_motion_dot": 9.991e-05,
        "meta_mean_motion_ddot": 0,
        "tle_line1": "1 31483U 99025BVX 25344.63422794  .00009991  00000+0  47574-2 0  9995",
        "tle_line2": "2 31483 102.5033 294.0657 0118853 226.3652 318.9099 14.15992511946769"
      },
      "geometry": {
        "type": "Point",
        "coordinates": [
          -63.82804576981573,
          -4.819439204172336
        ]
      }
    },
    {
      "type": "Feature",
      "properties": {
        "norad_id": 31484,
        "name": "FENGYUN 1C DEB",
        "group": "fengyun-1c-debris",
        "lat": -28.94970049188223,
        "lon": 94.57657398108341,
        "alt_km": 695.2359059728697,
        "timestamp": "2025-12-11T08:58:27.406671+00:00",
        "meta_object_name": "FENGYUN 1C DEB",
        "meta_object_id": "1999-025BVY",
        "meta_epoch": "2025-12-10T07:10:50.894688",
        "meta_mean_motion": 14.50258129,
        "meta_eccentricity": 0.0082922,
        "meta_inclination": 101.8042,
        "meta_ra_of_asc_node": 279.7183,
        "meta_arg_of_pericenter": 158.6379,
        "meta_mean_anomaly": 201.8297,
        "meta_ephemeris_type": 0,
        "meta_classification_type": "U",
        "meta_norad_cat_id": 31484,
        "meta_element_set_no": 999,
        "meta_rev_at_epoch": 64202,
        "meta_bstar": 0.0073567,
        "meta_mean_motion_dot": 0.00030002,
        "meta_mean_motion_ddot": 0,
        "tle_line1": "1 31484U 99025BVY 25344.29920017  .00030002  00000+0  73567-2 0  9997",
        "tle_line2": "2 31484 101.8042 279.7183 0082922 158.6379 201.8297 14.50258129642027"
      },
      "geometry": {
        "type": "Point",
        "coordinates": [
          94.57657398108341,
          -28.94970049188223
        ]
      }
    },
    {
      "type": "Feature",
      "properties": {
        "norad_id": 31485,
        "name": "FENGYUN 1C DEB",
        "group": "fengyun-1c-debris",
        "lat": 54.93712951925864,
        "lon": 11.027155220807826,
        "alt_km": 1417.8217506347646,
        "timestamp": "2025-12-11T08:58:27.406681+00:00",
        "meta_object_name": "FENGYUN 1C DEB",
        "meta_object_id": "1999-025BVZ",
        "meta_epoch": "2025-12-10T10:51:19.342080",
        "meta_mean_motion": 13.40027738,
        "meta_eccentricity": 0.04458594,
        "meta_inclination": 102.7187,
        "meta_ra_of_asc_node": 171.1002,
        "meta_arg_of_pericenter": 323.8485,
        "meta_mean_anomaly": 33.3238,
        "meta_ephemeris_type": 0,
        "meta_classification_type": "U",
        "meta_norad_cat_id": 31485,
        "meta_element_set_no": 999,
        "meta_rev_at_epoch": 90414,
        "meta_bstar": 0.0039196395,
        "meta_mean_motion_dot": 3.758e-05,
        "meta_mean_motion_ddot": 0,
        "tle_line1": "1 31485U 99025BVZ 25344.45230720  .00003758  00000+0  39196-2 0  9999",
        "tle_line2": "2 31485 102.7187 171.1002 0445859 323.8485  33.3238 13.40027738904144"
      },
      "geometry": {
        "type": "Point",
        "coordinates": [
          11.027155220807826,
          54.93712951925864
        ]
      }
    },
    {
      "type": "Feature",
      "properties": {
        "norad_id": 31487,
        "name": "FENGYUN 1C DEB",
        "group": "fengyun-1c-debris",
        "lat": -42.182281615906604,
        "lon": 164.87466478698911,
        "alt_km": 821.1620327788842,
        "timestamp": "2025-12-11T08:58:27.406693+00:00",
        "meta_object_name": "FENGYUN 1C DEB",
        "meta_object_id": "1999-025BWB",
        "meta_epoch": "2025-12-09T17:44:32.604000",
        "meta_mean_motion": 13.97711956,
        "meta_eccentricity": 0.01202997,
        "meta_inclination": 102.4139,
        "meta_ra_of_asc_node": 151.1598,
        "meta_arg_of_pericenter": 313.5334,
        "meta_mean_anomaly": 61.6285,
        "meta_ephemeris_type": 0,
        "meta_classification_type": "U",
        "meta_norad_cat_id": 31487,
        "meta_element_set_no": 999,
        "meta_rev_at_epoch": 94370,
        "meta_bstar": 0.0022584983,
        "meta_mean_motion_dot": 3.321e-05,
        "meta_mean_motion_ddot": 0,
        "tle_line1": "1 31487U 99025BWB 25343.73926625  .00003321  00000+0  22585-2 0  9997",
        "tle_line2": "2 31487 102.4139 151.1598 0120299 313.5334  61.6285 13.97711956943700"
      },
      "geometry": {
        "type": "Point",
        "coordinates": [
          164.87466478698911,
          -42.182281615906604
        ]
      }
    }
  ]
}